{
  "norad_id": 57753,
  "name": "STARLINK-30343",
  "history": [
    {
      "epoch": "2026-03-28T00:19:13.528128Z",
      "apogee_km": 559.8926217101398,
      "perigee_km": 558.2719485407488,
      "latitude_deg": 2.128619180105723e-05,
      "longitude_deg": -118.29323944700232,
      "height_km": 558.7509909916638,
      "semi_major_axis_km": 6937.219285125444,
      "eccentricity": 0.00011681,
      "inclination_deg": 43.0029,
      "raan_deg": 71.953,
      "arg_perigee_deg": 277.8451,
      "mean_anomaly_deg": 82.2259,
      "mean_motion_rev_day": 15.02535106
    },
    {
      "epoch": "2026-03-29T05:02:19.923648Z",
      "apogee_km": 559.6007351647804,
      "perigee_km": 558.6947257789807,
      "latitude_deg": 9.238110701465891e-06,
      "longitude_deg": 163.23957487590917,
      "height_km": 559.0619049081017,
      "semi_major_axis_km": 6937.284730471881,
      "eccentricity": 6.53e-05,
      "inclination_deg": 42.9972,
      "raan_deg": 65.4419,
      "arg_perigee_deg": 252.5294,
      "mean_anomaly_deg": 107.5477,
      "mean_motion_rev_day": 15.02513844
    },
    {
      "epoch": "2026-03-30T04:58:15.098880Z",
      "apogee_km": 559.9227173271101,
      "perigee_km": 558.2373898161159,
      "latitude_deg": 2.4868081836177595e-05,
      "longitude_deg": 157.8680433481586,
      "height_km": 558.7350222100896,
      "semi_major_axis_km": 6937.217053571612,
      "eccentricity": 0.00012147,
      "inclination_deg": 43.0039,
      "raan_deg": 60.0331,
      "arg_perigee_deg": 278.4959,
      "mean_anomaly_deg": 81.5746,
      "mean_motion_rev_day": 15.02535831
    },
    {
      "epoch": "2026-03-31T06:29:54.128832Z",
      "apogee_km": 560.0230382392829,
      "perigee_km": 558.1277918074984,
      "latitude_deg": -4.5982297811894436e-05,
      "longitude_deg": 128.12686677932902,
      "height_km": 558.6733876516178,
      "semi_major_axis_km": 6937.21241502339,
      "eccentricity": 0.0001366,
      "inclination_deg": 43.0042,
      "raan_deg": 54.253,
      "arg_perigee_deg": 281.0518,
      "mean_anomaly_deg": 79.017,
      "mean_motion_rev_day": 15.02537338
    },
    {
      "epoch": "2026-04-01T14:24:28.243296Z",
      "apogee_km": 559.7994416740339,
      "perigee_km": 558.3856342941936,
      "latitude_deg": -7.455478008669842e-06,
      "longitude_deg": 0.949090402572787,
      "height_km": 558.9395401346993,
      "semi_major_axis_km": 6937.229537984113,
      "eccentricity": 0.0001019,
      "inclination_deg": 43.0039,
      "raan_deg": 47.0278,
      "arg_perigee_deg": 264.5024,
      "mean_anomaly_deg": 95.5702,
      "mean_motion_rev_day": 15.02531775
    },
    {
      "epoch": "2026-04-01T14:24:28.244160Z",
      "apogee_km": 559.799164184853,
      "perigee_km": 558.3859117833745,
      "latitude_deg": 5.801285239169121e-05,
      "longitude_deg": 0.9491566051818873,
      "height_km": 558.9395046560496,
      "semi_major_axis_km": 6937.229537984113,
      "eccentricity": 0.00010186,
      "inclination_deg": 43.0039,
      "raan_deg": 47.0278,
      "arg_perigee_deg": 264.5025,
      "mean_anomaly_deg": 95.5702,
      "mean_motion_rev_day": 15.02531775
    },
    {
      "epoch": "2026-04-02T22:19:01.254432Z",
      "apogee_km": 559.8047277855303,
      "perigee_km": 558.3240515209227,
      "latitude_deg": -2.2956627702667915e-05,
      "longitude_deg": -126.22373442194608,
      "height_km": 558.9503972911024,
      "semi_major_axis_km": 6937.201389653226,
      "eccentricity": 0.00010672,
      "inclination_deg": 43.0038,
      "raan_deg": 39.803,
      "arg_perigee_deg": 261.7128,
      "mean_anomaly_deg": 98.3593,
      "mean_motion_rev_day": 15.0254092
    },
    {
      "epoch": "2026-04-03T20:39:13.712832Z",
      "apogee_km": 559.6515412760536,
      "perigee_km": 558.5318725627558,
      "latitude_deg": 1.059202003021598e-05,
      "longitude_deg": -107.25024819599943,
      "height_km": 558.8690569280727,
      "semi_major_axis_km": 6937.228706919404,
      "eccentricity": 8.07e-05,
      "inclination_deg": 43.0035,
      "raan_deg": 34.7457,
      "arg_perigee_deg": 270.1746,
      "mean_anomaly_deg": 89.9004,
      "mean_motion_rev_day": 15.02532045
    },
    {
      "epoch": "2026-04-04T12:36:30.487104Z",
      "apogee_km": 559.9674671200892,
      "perigee_km": 558.166846409159,
      "latitude_deg": 1.58914275607539e-05,
      "longitude_deg": 9.164829560100387,
      "height_km": 558.7354997715863,
      "semi_major_axis_km": 6937.204156764624,
      "eccentricity": 0.00012978,
      "inclination_deg": 43.006,
      "raan_deg": 31.1359,
      "arg_perigee_deg": 277.1092,
      "mean_anomaly_deg": 82.9603,
      "mean_motion_rev_day": 15.02540021
    },
    {
      "epoch": "2026-04-05T04:33:46.625472Z",
      "apogee_km": 559.8283759009028,
      "perigee_km": 558.2712549483113,
      "latitude_deg": 2.3385854359837197e-05,
      "longitude_deg": 125.57936623096457,
      "height_km": 558.6946024237641,
      "semi_major_axis_km": 6937.186815424607,
      "eccentricity": 0.00011223,
      "inclination_deg": 43.0051,
      "raan_deg": 27.5229,
      "arg_perigee_deg": 279.9649,
      "mean_anomaly_deg": 80.1067,
      "mean_motion_rev_day": 15.02545655
    },
    {
      "epoch": "2026-04-06T04:29:42.199008Z",
      "apogee_km": 559.8886225037668,
      "perigee_km": 558.2195343302992,
      "latitude_deg": 3.36584161465785e-05,
      "longitude_deg": 120.19746229139085,
      "height_km": 558.6910858831397,
      "semi_major_axis_km": 6937.191078417032,
      "eccentricity": 0.0001203,
      "inclination_deg": 43.0058,
      "raan_deg": 22.1054,
      "arg_perigee_deg": 279.8421,
      "mean_anomaly_deg": 80.2286,
      "mean_motion_rev_day": 15.0254427
    },
    {
      "epoch": "2026-04-07T10:48:32.512320Z",
      "apogee_km": 559.8697790915048,
      "perigee_km": 558.2878164009853,
      "latitude_deg": -5.290550906655524e-05,
      "longitude_deg": 17.38087709303547,
      "height_km": 558.6854284269295,
      "semi_major_axis_km": 6937.215797746245,
      "eccentricity": 0.00011402,
      "inclination_deg": 43.0028,
      "raan_deg": 15.2435,
      "arg_perigee_deg": 282.6076,
      "mean_anomaly_deg": 77.4638,
      "mean_motion_rev_day": 15.02536239
    },
    {
      "epoch": "2026-04-08T01:10:05.712672Z",
      "apogee_km": 559.8010944984608,
      "perigee_km": 558.3564886820195,
      "latitude_deg": -4.754918817230699e-05,
      "longitude_deg": 158.1507339394412,
      "height_km": 558.7807358364159,
      "semi_major_axis_km": 6937.21579159024,
      "eccentricity": 0.00010412,
      "inclination_deg": 43.0042,
      "raan_deg": 11.9914,
      "arg_perigee_deg": 276.1522,
      "mean_anomaly_deg": 83.9201,
      "mean_motion_rev_day": 15.02536241
    },
    {
      "epoch": "2026-04-09T20:14:01.105440Z",
      "apogee_km": 558.8092738855257,
      "perigee_km": 556.4885599177314,
      "latitude_deg": 1.840766473298055e-05,
      "longitude_deg": -139.35533691400852,
      "height_km": 556.9944624562085,
      "semi_major_axis_km": 6935.785916901628,
      "eccentricity": 0.0001673,
      "inclination_deg": 43.008,
      "raan_deg": 2.2347,
      "arg_perigee_deg": 291.9989,
      "mean_anomaly_deg": 68.0676,
      "mean_motion_rev_day": 15.03000907
    }
  ]
}